City_ID,City,Country,MaxTemp,Current Description,Lat,Lon,Hotel Name
10,Tuktoyaktuk,CA,53.6,broken clouds,69.4541,-133.0374,Smitty's Bed and Breakfast
13,Busselton,AU,53.82,clear sky,-33.65,115.3333,Esplanade Hotel
14,Sitka,US,67.89,overcast clouds,57.0531,-135.33,Sitka Hotel
17,Nikolskoye,RU,64.29,overcast clouds,59.7035,30.7861,Tourist House - Sablino
26,Busselton,AU,53.82,clear sky,-33.65,115.3333,Esplanade Hotel
39,Geraldton,AU,55.81,clear sky,-28.7667,114.6,Ocean Centre Hotel - Stay Beachside in Geraldton!
44,Margate,GB,67.69,scattered clouds,51.3813,1.3862,Premier Inn Margate hotel
46,Poli,TZ,55.29,overcast clouds,-3.3333,36.8,Lake Duluti Lodge
47,Port Elizabeth,ZA,57.49,clear sky,-33.918,25.5701,The Vic Boutique Hotel
52,Santo Tirso,PT,67.46,clear sky,41.3426,-8.4775,Cidnay Santo Tirso - Charming Hotel & Executive Center
54,Torbay,CA,58.26,light intensity drizzle,47.6666,-52.7314,See The Sea
58,Port Lincoln,AU,56.86,scattered clouds,-34.7333,135.8667,Port Lincoln Hotel
59,Pisco,PE,60.85,few clouds,-13.7,-76.2167,PiscoMar Peru
60,São João da Barra,BR,66.94,clear sky,-21.6403,-41.0511,Pousada Porto Prime
62,Rawson,AR,50.29,few clouds,-43.3002,-65.1023,Complejo Bahia Ballenas
68,Scarborough,GB,62.91,clear sky,54.2797,-0.4044,The Grand Hotel Scarborough
78,Hermanus,ZA,51.8,moderate rain,-34.4187,19.2345,Harbour House Hotel
81,Hofn,IS,51.01,moderate rain,64.2539,-15.2082,Milk Factory
82,Saint-Philippe,RE,64.22,light rain,-21.3585,55.7679,Hôtel Les Embruns Du Baril
84,Nikolskoye,RU,64.29,overcast clouds,59.7035,30.7861,Tourist House - Sablino
85,Souillac,MU,64.78,light rain,-20.5167,57.5167,Shanti Maurice Resort & Spa
87,Nome,US,51.87,overcast clouds,64.5011,-165.4064,Aurora Inn & Suites
89,Port Alfred,ZA,61.95,overcast clouds,-33.5906,26.891,Royal St Andrews Hotel
93,Ulundi,ZA,59.11,clear sky,-28.3352,31.4162,Garden Court Ulundi
96,Quatre Cocos,MU,69.1,light rain,-20.2078,57.7625,Constance Belle Mare Plage Mauritius
98,Tuktoyaktuk,CA,53.6,broken clouds,69.4541,-133.0374,Smitty's Bed and Breakfast
104,Geraldton,AU,55.81,clear sky,-28.7667,114.6,Ocean Centre Hotel - Stay Beachside in Geraldton!
105,Gifhorn,DE,69.37,clear sky,52.4833,10.55,Morada Hotel Isetal
111,Port Lincoln,AU,56.86,scattered clouds,-34.7333,135.8667,Port Lincoln Hotel
113,Morón,AR,58.96,clear sky,-34.6534,-58.6198,Protomy
119,Codrington,AU,50.67,overcast clouds,-38.2667,141.9667,Codrington Gardens Bed And Breakfast
120,Nikolskoye,RU,64.29,overcast clouds,59.7035,30.7861,Tourist House - Sablino
122,Nikolskoye,RU,64.29,overcast clouds,59.7035,30.7861,Tourist House - Sablino
123,Torbay,CA,58.26,light intensity drizzle,47.6666,-52.7314,See The Sea
124,Sitka,US,67.89,overcast clouds,57.0531,-135.33,Sitka Hotel
126,Skibbereen,IE,61.97,clear sky,51.55,-9.2667,The West Cork Hotel
133,Cape Town,ZA,54.27,moderate rain,-33.9258,18.4232,The Bay Hotel
134,Gimbi,ET,54.86,light rain,9.1667,35.8333,Nu Waliin Hotel
136,Luau,AO,61.09,overcast clouds,-10.7073,22.2247,Kimbo Hotel
139,Pisco,PE,60.85,few clouds,-13.7,-76.2167,Hotel San Isidro Oficial
142,Busselton,AU,53.82,clear sky,-33.65,115.3333,Esplanade Hotel
143,Port Alfred,ZA,61.95,overcast clouds,-33.5906,26.891,Royal St Andrews Hotel
149,Port Elizabeth,ZA,57.49,clear sky,-33.918,25.5701,The Vic Boutique Hotel
150,Laas,IT,65.28,overcast clouds,46.6166,10.7002,Gasthof Hotel Sonne Silandro
151,Busselton,AU,53.82,clear sky,-33.65,115.3333,Esplanade Hotel
154,Cape Town,ZA,54.27,moderate rain,-33.9258,18.4232,The Bay Hotel
159,Laas,IT,65.28,overcast clouds,46.6166,10.7002,Gasthof Hotel Sonne Silandro
161,Bredasdorp,ZA,53.1,light rain,-34.5322,20.0403,Victoria Hotel - Bredasdorp
164,San Rafael,AR,53.53,clear sky,-34.6177,-68.3301,Suter Petit Hotel
168,Yellowknife,CA,64.92,scattered clouds,62.456,-114.3525,The Explorer Hotel
172,Saint-Philippe,RE,64.22,light rain,-21.3585,55.7679,Hôtel Les Embruns Du Baril
180,Port Alfred,ZA,61.95,overcast clouds,-33.5906,26.891,Royal St Andrews Hotel
181,Mala,PE,61.97,broken clouds,-12.6581,-76.6308,Mirasur Resort
190,Port Lincoln,AU,56.86,scattered clouds,-34.7333,135.8667,Port Lincoln Hotel
192,Sehithwa,BW,57.79,clear sky,-20.4667,22.7167,MONLEK GUEST HOUSE
199,Flinders,AU,62.06,overcast clouds,-34.5833,150.8552,Oaks Hotel Motel
208,Rawson,AR,50.29,few clouds,-43.3002,-65.1023,Complejo Bahia Ballenas
211,Busselton,AU,53.82,clear sky,-33.65,115.3333,Esplanade Hotel
212,Santa Maria,BR,51.1,clear sky,-29.6842,-53.8069,Hotel Dom Rafael Business
213,Torbay,CA,58.26,light intensity drizzle,47.6666,-52.7314,See The Sea
217,Busselton,AU,53.82,clear sky,-33.65,115.3333,Esplanade Hotel
218,Kachug,RU,59.22,few clouds,53.9606,105.8817,"The hotel ""Empire"""
223,Busselton,AU,53.82,clear sky,-33.65,115.3333,Esplanade Hotel
225,Cape Town,ZA,54.27,moderate rain,-33.9258,18.4232,The Bay Hotel
228,Sitka,US,67.89,overcast clouds,57.0531,-135.33,Sitka Hotel
231,Falun,SE,64.81,clear sky,60.6036,15.626,Hotel Falun
247,Tuktoyaktuk,CA,53.6,broken clouds,69.4541,-133.0374,Smitty's Bed and Breakfast
248,Ahipara,NZ,55.81,clear sky,-35.1667,173.1667,Ahipara Bay Motel
253,Puerto Ayora,EC,68.56,light rain,-0.7393,-90.3518,Finch Bay Galapagos Hotel
254,Semey,KZ,59.22,mist,50.4111,80.2275,Grand Hotel Semey
257,Kasulu,TZ,65.3,few clouds,-4.5767,30.1025,Ubarikiwe Lodge
258,Bredasdorp,ZA,53.1,light rain,-34.5322,20.0403,Victoria Hotel - Bredasdorp
262,Yellowknife,CA,64.92,scattered clouds,62.456,-114.3525,The Explorer Hotel
271,Sumbe,AO,68.38,overcast clouds,-11.2061,13.8437,Hotel Ritz Sumbe
272,Sitka,US,67.89,overcast clouds,57.0531,-135.33,Sitka Hotel
274,Busselton,AU,53.82,clear sky,-33.65,115.3333,Esplanade Hotel
276,Hofn,IS,51.01,moderate rain,64.2539,-15.2082,Milk Factory
279,Carnarvon,AU,63.54,clear sky,-24.8667,113.6333,Carnarvon Hotel
291,Pisco,PE,60.85,few clouds,-13.7,-76.2167,Hotel San Isidro Oficial
292,Sambava,MG,68.34,light rain,-14.2667,50.1667,Hôtel Las Palmas
301,Jerécuaro,MX,68.22,overcast clouds,20.15,-100.5167,Hotel El Patio
304,Cape Town,ZA,54.27,moderate rain,-33.9258,18.4232,The Bay Hotel
307,Busselton,AU,53.82,clear sky,-33.65,115.3333,Esplanade Hotel
311,Cape Town,ZA,54.27,moderate rain,-33.9258,18.4232,The Bay Hotel
322,Kargasok,RU,54.84,few clouds,59.0556,80.8572,Gostitsa Severyanka
325,Hermanus,ZA,51.8,moderate rain,-34.4187,19.2345,Harbour House Hotel
331,Carballo,ES,67.42,broken clouds,43.213,-8.691,Hotel Mar De Queo
335,Onega,RU,55.99,broken clouds,63.9061,38.1404,"Gostevoy Kompleks ""Alonushka"""
336,Cape Town,ZA,54.27,moderate rain,-33.9258,18.4232,The Bay Hotel
340,Busselton,AU,53.82,clear sky,-33.65,115.3333,Esplanade Hotel
341,Hermanus,ZA,51.8,moderate rain,-34.4187,19.2345,Harbour House Hotel
342,Cape Town,ZA,54.27,moderate rain,-33.9258,18.4232,The Bay Hotel
345,Tuktoyaktuk,CA,53.6,broken clouds,69.4541,-133.0374,Smitty's Bed and Breakfast
350,Goderich,CA,65.91,clear sky,43.7501,-81.7165,Bedford Hotel
359,Port Alfred,ZA,61.95,overcast clouds,-33.5906,26.891,Royal St Andrews Hotel
360,Busselton,AU,53.82,clear sky,-33.65,115.3333,Esplanade Hotel
361,Carnarvon,AU,63.54,clear sky,-24.8667,113.6333,Good Paddock Restaurant By Gascoyne Hotel
365,Cape Town,ZA,54.27,moderate rain,-33.9258,18.4232,The Bay Hotel
366,Kaeo,NZ,59.32,clear sky,-35.1,173.7833,Pacific Harbour Lodge
369,Mount Isa,AU,69.57,broken clouds,-20.7333,139.5,ibis Styles Mt Isa Verona
371,Kokstad,ZA,53.4,overcast clouds,-30.5472,29.4241,The Nolangeni Hotel
382,Nemuro,JP,66.45,light rain,43.3236,145.575,Hotel Nemuro Kaiyoutei
393,Puerto Ayora,EC,68.56,light rain,-0.7393,-90.3518,Finch Bay Galapagos Hotel
394,Busselton,AU,53.82,clear sky,-33.65,115.3333,Esplanade Hotel
395,Sol'-Iletsk,RU,68.07,overcast clouds,51.1631,54.9918,Hotel Volga
397,Geraldton,AU,55.81,clear sky,-28.7667,114.6,Ocean Centre Hotel - Stay Beachside in Geraldton!
402,Bredasdorp,ZA,53.1,light rain,-34.5322,20.0403,Victoria Hotel - Bredasdorp
404,Laas,IT,65.28,overcast clouds,46.6166,10.7002,Gasthof Hotel Sonne Silandro
411,Busselton,AU,53.82,clear sky,-33.65,115.3333,Esplanade Hotel
412,Bambous Virieux,MU,69.22,light rain,-20.3428,57.7575,La Hacienda Hotel
413,Mar del Plata,AR,52.88,clear sky,-38.0023,-57.5575,HOTEL TRONADOR
414,Mahébourg,MU,69.26,scattered clouds,-20.4081,57.7,Anantara Iko Mauritius Resort & Villas
415,Matagami,CA,57.31,clear sky,49.7502,-77.6328,Motel Le Caribou
420,Oudtshoorn,ZA,52.16,overcast clouds,-33.5907,22.2014,Protea Hotel by Marriott Oudtshoorn Riempie Estate
422,Codrington,AU,50.67,overcast clouds,-38.2667,141.9667,Codrington Gardens Bed And Breakfast
426,Esperance,AU,54.88,broken clouds,-33.8667,121.9,The Jetty Resort
429,Port Alfred,ZA,61.95,overcast clouds,-33.5906,26.891,Royal St Andrews Hotel
432,Saint-Pierre,RE,67.91,clear sky,-21.3393,55.4781,Le Battant Des Lames
441,Guarujá,BR,63.9,broken clouds,-23.9931,-46.2564,Comfort Hotel Santos
443,Los Llanos de Aridane,ES,69.55,clear sky,28.6585,-17.9182,Hotel Hacienda de Abajo
444,Carnarvon,AU,63.54,clear sky,-24.8667,113.6333,Carnarvon Hotel
448,Pangody,RU,57.72,overcast clouds,65.85,74.4859,Хостел Адмиралъ
451,Kyzyl-Suu,KG,60.48,broken clouds,42.3414,78.0056,Дом с завтраком и постелью
452,Saint-Philippe,RE,64.22,light rain,-21.3585,55.7679,Hôtel Les Embruns Du Baril
460,Markova,UA,52.83,clear sky,48.6758,24.4138,Vas.VOM
464,Inta,RU,55.47,overcast clouds,66.0317,60.1659,Отель Инта
466,Siedlce,PL,62.2,overcast clouds,52.1677,22.2901,Hotel Arche
468,Bredasdorp,ZA,53.1,light rain,-34.5322,20.0403,Victoria Hotel - Bredasdorp
469,Esperance,AU,54.88,broken clouds,-33.8667,121.9,The Jetty Resort
470,Hermanus,ZA,51.8,moderate rain,-34.4187,19.2345,Harbour House Hotel
476,Busselton,AU,53.82,clear sky,-33.65,115.3333,Esplanade Hotel
477,Yellowknife,CA,64.92,scattered clouds,62.456,-114.3525,The Explorer Hotel
479,Chimbote,PE,62.42,broken clouds,-9.0853,-78.5783,Hotel Real Chimbote
492,Saint-Philippe,RE,64.22,light rain,-21.3585,55.7679,Hôtel Les Embruns Du Baril
493,Darhan,MN,65.01,clear sky,49.4867,105.9228,Buudai Hotel
494,Puerto Ayora,EC,68.56,light rain,-0.7393,-90.3518,Finch Bay Galapagos Hotel
495,Mar del Plata,AR,52.88,clear sky,-38.0023,-57.5575,Hotel Bagu Playa Grande
506,Cape Town,ZA,54.27,moderate rain,-33.9258,18.4232,The Bay Hotel
508,Mar del Plata,AR,52.88,clear sky,-38.0023,-57.5575,Hotel Bagu Playa Grande
510,Cape Town,ZA,54.27,moderate rain,-33.9258,18.4232,The Bay Hotel
512,Mar del Plata,AR,52.88,clear sky,-38.0023,-57.5575,Hotel Bagu Playa Grande
519,Havøysund,NO,50.23,light rain,70.9963,24.6622,Havøysund Hotel & Rorbuer
526,Pisco,PE,60.85,few clouds,-13.7,-76.2167,Hotel San Isidro Oficial
532,Ahipara,NZ,55.81,clear sky,-35.1667,173.1667,Ahipara Bay Motel
538,Tuktoyaktuk,CA,53.6,broken clouds,69.4541,-133.0374,Smitty's Bed and Breakfast
542,Mar del Plata,AR,52.88,clear sky,-38.0023,-57.5575,Hotel Bagu Playa Grande
553,Oppdal,NO,53.8,overcast clouds,62.5943,9.6912,Quality Hotel Skifer
559,Souillac,MU,64.78,light rain,-20.5167,57.5167,Shanti Maurice Resort & Spa
564,Busselton,AU,53.82,clear sky,-33.65,115.3333,Esplanade Hotel
570,Saint Paul Harbor,US,58.51,overcast clouds,57.79,-152.4072,Best Western Kodiak Inn
573,Broken Hill,AU,57.85,few clouds,-31.95,141.4333,Palace Hotel
577,Hermanus,ZA,51.8,moderate rain,-34.4187,19.2345,Harbour House Hotel
578,Biržai,LT,55.62,clear sky,56.2,24.75,Avanti viešbutis-restoranas
579,Resistencia,AR,61.11,clear sky,-27.4606,-58.9839,Niyat Urban Hotel
586,Huarmey,PE,62.53,scattered clouds,-10.0681,-78.1522,Hospedaje Aristides Inn
602,Souillac,MU,64.78,light rain,-20.5167,57.5167,Shanti Maurice Resort & Spa
607,Busselton,AU,53.82,clear sky,-33.65,115.3333,Esplanade Hotel
610,Matagami,CA,57.31,clear sky,49.7502,-77.6328,Motel Le Caribou
614,Souillac,MU,64.78,light rain,-20.5167,57.5167,Shanti Maurice Resort & Spa
616,Esperance,AU,54.88,broken clouds,-33.8667,121.9,The Jetty Resort
618,Nome,US,51.87,overcast clouds,64.5011,-165.4064,Aurora Inn & Suites
624,Bermejo,AR,53.51,clear sky,-32.8833,-68.8,ibis Mendoza
630,Mutum,BR,64.6,overcast clouds,-19.8,-41.4383,STELA HOTEL
631,Yellowknife,CA,64.92,scattered clouds,62.456,-114.3525,The Explorer Hotel
633,Saint-Philippe,RE,64.22,light rain,-21.3585,55.7679,Hôtel Les Embruns Du Baril
641,Port Alfred,ZA,61.95,overcast clouds,-33.5906,26.891,The Halyards Hotel
642,Mangaratiba,BR,63.46,overcast clouds,-22.9597,-44.0406,Portobello Resort & Safari
646,Kiama,AU,62.26,overcast clouds,-34.6833,150.8667,The Grand Hotel
652,Hermanus,ZA,51.8,moderate rain,-34.4187,19.2345,Harbour House Hotel
656,Arraial do Cabo,BR,67.86,clear sky,-22.9661,-42.0278,Orlanova Boutique Hotel
659,Władysławowo,PL,58.01,clear sky,54.7909,18.4009,Gwiazda Morza Resort SPA&SPORT
663,Mar del Plata,AR,52.88,clear sky,-38.0023,-57.5575,Hotel Bagu Playa Grande
666,Arraial do Cabo,BR,67.86,clear sky,-22.9661,-42.0278,Orlanova Boutique Hotel
679,Bredasdorp,ZA,53.1,light rain,-34.5322,20.0403,Victoria Hotel - Bredasdorp
681,Mar del Plata,AR,52.88,clear sky,-38.0023,-57.5575,Hotel Bagu Playa Grande
686,Port Elizabeth,ZA,57.49,clear sky,-33.918,25.5701,Kingsworth Inn
688,Saint Paul Harbor,US,58.51,overcast clouds,57.79,-152.4072,Best Western Kodiak Inn
689,Yellowknife,CA,64.92,scattered clouds,62.456,-114.3525,The Explorer Hotel
692,Kruisfontein,ZA,53.89,overcast clouds,-34.0033,24.7314,40b Overnight Accommodation
702,Cape Town,ZA,54.27,moderate rain,-33.9258,18.4232,The Bay Hotel
710,Kruisfontein,ZA,53.89,overcast clouds,-34.0033,24.7314,40b Overnight Accommodation
711,Gravdal,NO,50.54,overcast clouds,68.1214,13.5031,Scandic Leknes Lofoten Hotel
715,Sungai Penuh,ID,69.76,scattered clouds,-2.0833,101.3833,PENGINAPAN DZAKY SUNGAI PENUH (Penginapan Syari'ah)
720,Rawson,AR,50.29,few clouds,-43.3002,-65.1023,Complejo Bahia Ballenas
727,Tuktoyaktuk,CA,53.6,broken clouds,69.4541,-133.0374,Smitty's Bed and Breakfast
739,Itapetinga,BR,67.82,clear sky,-15.2489,-40.2478,Morumbi Hotel
745,Salto,UY,50.88,broken clouds,-31.3833,-57.9667,Hotel Español Salto
749,Busselton,AU,53.82,clear sky,-33.65,115.3333,Esplanade Hotel
753,Yellowknife,CA,64.92,scattered clouds,62.456,-114.3525,The Explorer Hotel
756,Tuktoyaktuk,CA,53.6,broken clouds,69.4541,-133.0374,Smitty's Bed and Breakfast
757,Bredasdorp,ZA,53.1,light rain,-34.5322,20.0403,Victoria Hotel - Bredasdorp
761,Puerto Ayora,EC,68.56,light rain,-0.7393,-90.3518,Finch Bay Galapagos Hotel
762,Asău,RO,60.28,clear sky,46.4333,26.4,Pensiune la Miruna
764,Puerto Ayora,EC,68.56,light rain,-0.7393,-90.3518,Finch Bay Galapagos Hotel
765,Busselton,AU,53.82,clear sky,-33.65,115.3333,Esplanade Hotel
769,Carnarvon,AU,63.54,clear sky,-24.8667,113.6333,Good Paddock Restaurant By Gascoyne Hotel
770,Port Hardy,CA,68.18,scattered clouds,50.6996,-127.4199,Quarterdeck Inn Resort & Marina
771,Ahipara,NZ,55.81,clear sky,-35.1667,173.1667,Ahipara Bay Motel
776,Carnarvon,AU,63.54,clear sky,-24.8667,113.6333,Good Paddock Restaurant By Gascoyne Hotel
779,Chui,UY,51.3,few clouds,-33.6971,-53.4616,Hotel Internacional
781,Rumphi,MW,57.11,broken clouds,-11.0186,33.8575,Lunyina Hotel
788,Laas,IT,65.28,overcast clouds,46.6166,10.7002,Gasthof Hotel Sonne Silandro
789,Busselton,AU,53.82,clear sky,-33.65,115.3333,Esplanade Hotel
790,Markova,UA,52.83,clear sky,48.6758,24.4138,Vas.VOM
796,Chui,UY,51.3,few clouds,-33.6971,-53.4616,Hotel Internacional
797,Camacha,PT,65.62,few clouds,33.0833,-16.3333,Hotel Torre Praia
798,Yellowknife,CA,64.92,scattered clouds,62.456,-114.3525,The Explorer Hotel
801,Puerto Ayora,EC,68.56,light rain,-0.7393,-90.3518,Finch Bay Galapagos Hotel
805,Hermanus,ZA,51.8,moderate rain,-34.4187,19.2345,Harbour House Hotel
806,Port Elizabeth,ZA,57.49,clear sky,-33.918,25.5701,Kingsworth Inn
814,Dorogobuzh,RU,54.86,clear sky,54.915,33.2972,Hotel Dnepr
816,Barranca,PE,61.11,scattered clouds,-10.75,-77.7667,Hotel Chavin
817,Los Llanos de Aridane,ES,69.55,clear sky,28.6585,-17.9182,Hotel Hacienda de Abajo
820,São João da Barra,BR,66.94,clear sky,-21.6403,-41.0511,Pousada Porto Prime
827,Labé,GN,65.44,overcast clouds,11.3182,-12.2833,Hôtel Djamtum
829,Busselton,AU,53.82,clear sky,-33.65,115.3333,Esplanade Hotel
831,Yar-Sale,RU,56.17,overcast clouds,66.8333,70.8333,Yalemd
836,Saint-Philippe,RE,64.22,light rain,-21.3585,55.7679,Hôtel Les Embruns Du Baril
841,Hermanus,ZA,51.8,moderate rain,-34.4187,19.2345,Harbour House Hotel
843,Benguela,AO,68.27,overcast clouds,-12.5763,13.4055,"Aparthotel Mil Cidades, llc"
846,Saint-Philippe,RE,64.22,light rain,-21.3585,55.7679,Hôtel Les Embruns Du Baril
849,Huarmey,PE,62.53,scattered clouds,-10.0681,-78.1522,Hotel Miramar
850,Iskateley,RU,54.32,broken clouds,67.6803,53.1512,Hotel North Palmyra
852,Cape Town,ZA,54.27,moderate rain,-33.9258,18.4232,The Bay Hotel
854,Muros,ES,63.09,clear sky,42.7762,-9.0603,A Casa da Fonte
861,Busselton,AU,53.82,clear sky,-33.65,115.3333,Esplanade Hotel
862,Yellowknife,CA,64.92,scattered clouds,62.456,-114.3525,The Explorer Hotel
870,Torbay,CA,58.26,light intensity drizzle,47.6666,-52.7314,See The Sea
872,Bonavista,CA,57.63,overcast clouds,48.6499,-53.1147,Russelltown Inn
879,Hermanus,ZA,51.8,moderate rain,-34.4187,19.2345,Harbour House Hotel
880,Puerto Ayora,EC,68.56,light rain,-0.7393,-90.3518,Finch Bay Galapagos Hotel
889,Cape Town,ZA,54.27,moderate rain,-33.9258,18.4232,The Bay Hotel
899,Cape Town,ZA,54.27,moderate rain,-33.9258,18.4232,The Bay Hotel
907,Puerto Ayora,EC,68.56,light rain,-0.7393,-90.3518,Finch Bay Galapagos Hotel
908,Kenai,US,62.69,light rain,60.5544,-151.2583,Aspen Extended Stay Suites
915,Cape Town,ZA,54.27,moderate rain,-33.9258,18.4232,The Bay Hotel
920,Port Alfred,ZA,61.95,overcast clouds,-33.5906,26.891,Royal St Andrews Hotel
922,Pisco,PE,60.85,few clouds,-13.7,-76.2167,PiscoMar Peru
925,Camapuã,BR,59.36,clear sky,-19.5314,-54.0439,COLLINA HOTEL
928,Chui,UY,51.3,few clouds,-33.6971,-53.4616,Hotel Internacional
930,Puerto Ayora,EC,68.56,light rain,-0.7393,-90.3518,Finch Bay Galapagos Hotel
933,Souillac,MU,64.78,light rain,-20.5167,57.5167,Shanti Maurice Resort & Spa
934,Port Alfred,ZA,61.95,overcast clouds,-33.5906,26.891,Royal St Andrews Hotel
938,Bredasdorp,ZA,53.1,light rain,-34.5322,20.0403,Victoria Hotel - Bredasdorp
940,Sitka,US,67.89,overcast clouds,57.0531,-135.33,Sitka Hotel
944,Port Elizabeth,ZA,57.49,clear sky,-33.918,25.5701,The Vic Boutique Hotel
946,Arraial do Cabo,BR,67.86,clear sky,-22.9661,-42.0278,Orlanova Hotel
947,Port Hedland,AU,69.85,overcast clouds,-20.3167,118.5667,Hedland Hotel
958,Puerto Ayora,EC,68.56,light rain,-0.7393,-90.3518,Finch Bay Galapagos Hotel
959,Saint Paul Harbor,US,58.51,overcast clouds,57.79,-152.4072,Best Western Kodiak Inn
961,Luena,AO,52.68,broken clouds,-11.7833,19.9167,Hotel Kandamba
967,Cape Town,ZA,54.27,moderate rain,-33.9258,18.4232,The Bay Hotel
974,Souillac,MU,64.78,light rain,-20.5167,57.5167,Shanti Maurice Resort & Spa
975,Kragerø,NO,60.58,clear sky,58.8693,9.4149,Victoria Hotel Kragerø
978,East London,ZA,63.43,scattered clouds,-33.0153,27.9116,Blue Lagoon Hotel
979,Puerto Ayora,EC,68.56,light rain,-0.7393,-90.3518,Finch Bay Galapagos Hotel
980,Masterton,NZ,51.89,broken clouds,-40.9597,175.6575,Copthorne Hotel & Resort Solway Park Wairarapa
983,Espera Feliz,BR,54.36,clear sky,-20.6503,-41.9072,Hotel Pico Da Bandeira
984,Ahipara,NZ,55.81,clear sky,-35.1667,173.1667,Ahipara Bay Motel
986,Busselton,AU,53.82,clear sky,-33.65,115.3333,Esplanade Hotel
987,Port Alfred,ZA,61.95,overcast clouds,-33.5906,26.891,Royal St Andrews Hotel
988,Grindavik,IS,51.75,light intensity drizzle,63.8424,-22.4338,Northern Light Inn & Max's Restaurant
992,Lubango,AO,59.41,clear sky,-14.9172,13.4925,Chik-Chik Lubango
995,Kiama,AU,62.26,overcast clouds,-34.6833,150.8667,The Grand Hotel
1000,Mar del Plata,AR,52.88,clear sky,-38.0023,-57.5575,HOTEL TRONADOR
1002,Busselton,AU,53.82,clear sky,-33.65,115.3333,Esplanade Hotel
1003,Puerto Ayora,EC,68.56,light rain,-0.7393,-90.3518,Finch Bay Galapagos Hotel
1006,Chui,UY,51.3,few clouds,-33.6971,-53.4616,Bertelli Chuí Hotel
1007,Klaksvík,FO,52.72,overcast clouds,62.2266,-6.589,Hotel Klaksvík
1009,Tynda,RU,54.45,light rain,55.1667,124.7167,Gostinitsa Safari
1010,Bambous Virieux,MU,69.22,light rain,-20.3428,57.7575,La Hacienda Hotel
1020,Goderich,CA,65.91,clear sky,43.7501,-81.7165,Bedford Hotel
1021,Saldanha,ZA,55.45,light rain,-33.0117,17.9442,Saldanha Bay Hotel
1025,Port Alfred,ZA,61.95,overcast clouds,-33.5906,26.891,Royal St Andrews Hotel
1033,Inta,RU,55.47,overcast clouds,66.0317,60.1659,Hotel Severyanka
1034,Quelimane,MZ,67.95,clear sky,-17.8786,36.8883,Kansa Hotel
1037,Vao,NC,68.45,clear sky,-22.6667,167.4833,OURE TERA beach resort
1038,Cape Town,ZA,54.27,moderate rain,-33.9258,18.4232,The Bay Hotel
1040,Tsiroanomandidy,MG,55.67,clear sky,-18.7667,46.0333,Horizon Hotel
1041,Kruisfontein,ZA,53.89,overcast clouds,-34.0033,24.7314,40b Overnight Accommodation
1042,Lata,PT,59.22,clear sky,40.1629,-8.3327,Arouce Hostel
1044,Mar del Plata,AR,52.88,clear sky,-38.0023,-57.5575,HOTEL TRONADOR
1045,Cape Town,ZA,54.27,moderate rain,-33.9258,18.4232,The Bay Hotel
1049,Saint Paul Harbor,US,58.51,overcast clouds,57.79,-152.4072,Best Western Kodiak Inn
1052,Port Macquarie,AU,56.89,overcast clouds,-31.4333,152.9167,Port Macquarie Hotel
1058,Ginda,IN,64.27,clear sky,30.6945,78.4932,Shivlinga Resort
1060,Carnarvon,AU,63.54,clear sky,-24.8667,113.6333,Good Paddock Restaurant By Gascoyne Hotel
1063,Busselton,AU,53.82,clear sky,-33.65,115.3333,Esplanade Hotel
1070,Çay,TR,62.94,clear sky,38.5917,31.0286,Grand Bozkurt Butik Otel
1071,Alcains,PT,63.68,clear sky,39.9164,-7.4566,Arca dos Animais - Farming & Spa
1075,Cape Town,ZA,54.27,moderate rain,-33.9258,18.4232,The Bay Hotel
1091,Cape Town,ZA,54.27,moderate rain,-33.9258,18.4232,The Bay Hotel
1094,Saint-Philippe,RE,64.22,light rain,-21.3585,55.7679,Hôtel Les Embruns Du Baril
1097,Geraldton,AU,55.81,clear sky,-28.7667,114.6,Ocean Centre Hotel - Stay Beachside in Geraldton!
1099,Busselton,AU,53.82,clear sky,-33.65,115.3333,Esplanade Hotel
1101,Vao,NC,68.45,clear sky,-22.6667,167.4833,OURE TERA beach resort
1106,Cape Town,ZA,54.27,moderate rain,-33.9258,18.4232,The Bay Hotel
1109,Copiapó,CL,51.49,overcast clouds,-27.3667,-70.3333,ibis Copiapo
1111,Chui,UY,51.3,few clouds,-33.6971,-53.4616,Hotel Internacional
1113,Port Alfred,ZA,61.95,overcast clouds,-33.5906,26.891,Royal St Andrews Hotel
1120,Kem',RU,56.66,overcast clouds,64.9555,34.5793,Kemka
1131,Mahébourg,MU,69.26,scattered clouds,-20.4081,57.7,Holiday Inn Mauritius Mon Tresor
1132,Yellowknife,CA,64.92,scattered clouds,62.456,-114.3525,The Explorer Hotel
1142,Cidreira,BR,59.76,clear sky,-30.1811,-50.2056,Pousada Vem Verão
1157,Byron Bay,AU,65.95,overcast clouds,-28.65,153.6167,LIFE IN BYRON
1163,Haines Junction,CA,67.95,overcast clouds,60.7522,-137.5108,Wanderer's Inn Backpackers Hostel
1164,East London,ZA,63.43,scattered clouds,-33.0153,27.9116,Blue Lagoon Hotel
1166,Busselton,AU,53.82,clear sky,-33.65,115.3333,Esplanade Hotel
1168,Mar del Plata,AR,52.88,clear sky,-38.0023,-57.5575,HOTEL TRONADOR
1172,East London,ZA,63.43,scattered clouds,-33.0153,27.9116,Blue Lagoon Hotel
1179,Cape Town,ZA,54.27,moderate rain,-33.9258,18.4232,The Bay Hotel
1181,Sovetskaya Gavan',RU,60.4,overcast clouds,48.9723,140.2878,HOTEL SOVETSKAYA GAVAN
1186,Rome,US,69.94,broken clouds,43.2128,-75.4557,Wingate By Wyndham Rome
1188,Saint-Philippe,RE,64.22,light rain,-21.3585,55.7679,Hôtel Les Embruns Du Baril
1191,Bredasdorp,ZA,53.1,light rain,-34.5322,20.0403,Victoria Hotel - Bredasdorp
1192,Puteyets,RU,52.99,light rain,65.1716,57.091,"Rest, Гостиница"
1193,Port Alfred,ZA,61.95,overcast clouds,-33.5906,26.891,Royal St Andrews Hotel
1201,Asău,RO,60.28,clear sky,46.4333,26.4,Pensiune la Miruna
1206,Busselton,AU,53.82,clear sky,-33.65,115.3333,Esplanade Hotel
1211,Port Alfred,ZA,61.95,overcast clouds,-33.5906,26.891,Royal St Andrews Hotel
1223,Souillac,MU,64.78,light rain,-20.5167,57.5167,Shanti Maurice Resort & Spa
1234,Port Lincoln,AU,56.86,scattered clouds,-34.7333,135.8667,Port Lincoln Hotel
1239,Port Hedland,AU,69.85,overcast clouds,-20.3167,118.5667,Hedland Hotel
1243,Bredasdorp,ZA,53.1,light rain,-34.5322,20.0403,Victoria Hotel - Bredasdorp
1247,Hermanus,ZA,51.8,moderate rain,-34.4187,19.2345,Harbour House Hotel
1251,Cape Town,ZA,54.27,moderate rain,-33.9258,18.4232,The Bay Hotel
1256,Saint-Philippe,RE,64.22,light rain,-21.3585,55.7679,Hôtel Les Embruns Du Baril
1265,Port Elizabeth,ZA,57.49,clear sky,-33.918,25.5701,Kingsworth Inn
1267,Busselton,AU,53.82,clear sky,-33.65,115.3333,Esplanade Hotel
1270,Arraial do Cabo,BR,67.86,clear sky,-22.9661,-42.0278,Orlanova Hotel
1275,Khuzhir,RU,56.93,clear sky,53.1939,107.3397,Art Hotel Port Olkhon
1277,Nikolskoye,RU,64.29,overcast clouds,59.7035,30.7861,Tourist House - Sablino
1282,Skjervøy,NO,51.8,overcast clouds,70.0311,20.9714,Hotel Maritim Skjervøy AS
1284,Port Alfred,ZA,61.95,overcast clouds,-33.5906,26.891,Royal St Andrews Hotel
1289,Petropavlovsk-Kamchatskiy,RU,57.79,broken clouds,53.0452,158.6483,Hotel Arsenev
1295,Port Alfred,ZA,61.95,overcast clouds,-33.5906,26.891,Royal St Andrews Hotel
1296,Saint-Philippe,RE,64.22,light rain,-21.3585,55.7679,Hôtel Les Embruns Du Baril
1297,Hofn,IS,51.01,moderate rain,64.2539,-15.2082,Milk Factory
1298,Ibirama,BR,56.66,scattered clouds,-27.0569,-49.5178,Hotel Soralete - Grupo Rosablue
1301,Cape Town,ZA,54.27,moderate rain,-33.9258,18.4232,The Bay Hotel
1316,Bambous Virieux,MU,69.22,light rain,-20.3428,57.7575,La Hacienda Hotel
1321,East London,ZA,63.43,scattered clouds,-33.0153,27.9116,Blue Lagoon Hotel
1323,Sandwick,GB,53.42,overcast clouds,60.0,-1.25,Hayhoull Bed and Breakfast
1328,Røros,NO,51.64,overcast clouds,62.5747,11.3842,Bergstadens Hotel
1334,Lakes Entrance,AU,59.81,broken clouds,-37.8811,147.981,The Esplanade Resort & Spa
1338,Yellowknife,CA,64.92,scattered clouds,62.456,-114.3525,The Explorer Hotel
1342,Souillac,MU,64.78,light rain,-20.5167,57.5167,Shanti Maurice Resort & Spa
1343,Esperance,AU,54.88,broken clouds,-33.8667,121.9,Esperance Chalet Village
1344,Port Alfred,ZA,61.95,overcast clouds,-33.5906,26.891,Royal St Andrews Hotel
1354,Bredasdorp,ZA,53.1,light rain,-34.5322,20.0403,Victoria Hotel - Bredasdorp
1358,Inhambane,MZ,67.19,clear sky,-23.865,35.3833,Hotel Casa Do Capitão
1371,Nikolskoye,RU,64.29,overcast clouds,59.7035,30.7861,Tourist House - Sablino
1377,Vadsø,NO,54.48,broken clouds,70.0744,29.7487,Scandic Vadsø
1380,Port Alfred,ZA,61.95,overcast clouds,-33.5906,26.891,Royal St Andrews Hotel
1385,Puerto Ayora,EC,68.56,light rain,-0.7393,-90.3518,Finch Bay Galapagos Hotel
1388,Florianópolis,BR,58.69,broken clouds,-27.6146,-48.5012,Majestic Palace Hotel
1389,Busselton,AU,53.82,clear sky,-33.65,115.3333,Esplanade Hotel
1390,Araquari,BR,58.93,broken clouds,-26.3703,-48.7211,Zanella Jasper
1397,Bredasdorp,ZA,53.1,light rain,-34.5322,20.0403,Victoria Hotel - Bredasdorp
1399,Yellowknife,CA,64.92,scattered clouds,62.456,-114.3525,The Explorer Hotel
1402,Tuktoyaktuk,CA,53.6,broken clouds,69.4541,-133.0374,Smitty's Bed and Breakfast
1405,East London,ZA,63.43,scattered clouds,-33.0153,27.9116,Blue Lagoon Hotel
1407,East London,ZA,63.43,scattered clouds,-33.0153,27.9116,Blue Lagoon Hotel
1413,Port Hardy,CA,68.18,scattered clouds,50.6996,-127.4199,Quarterdeck Inn Resort & Marina
1425,Hermanus,ZA,51.8,moderate rain,-34.4187,19.2345,Harbour House Hotel
1426,Inhambane,MZ,67.19,clear sky,-23.865,35.3833,Hotel Casa Do Capitão
1427,Los Llanos de Aridane,ES,69.55,clear sky,28.6585,-17.9182,Hotel Hacienda de Abajo
1429,Sambava,MG,68.34,light rain,-14.2667,50.1667,Melrose
1431,Traralgon,AU,59.43,overcast clouds,-38.1833,146.5333,Comfort Inn Traralgon
1433,Busselton,AU,53.82,clear sky,-33.65,115.3333,Esplanade Hotel
1437,Busselton,AU,53.82,clear sky,-33.65,115.3333,Esplanade Hotel
1438,Xining,CN,69.49,overcast clouds,36.6167,101.7667,Sofitel Xining
1446,Nemuro,JP,66.45,light rain,43.3236,145.575,Hotel Nemuro Kaiyoutei
1448,Saint-Pierre,RE,67.91,clear sky,-21.3393,55.4781,Le Battant Des Lames
1449,Hermanus,ZA,51.8,moderate rain,-34.4187,19.2345,Harbour House Hotel
1450,Luanda,AO,68.68,overcast clouds,-8.8368,13.2343,"InterContinental Luanda Miramar, an IHG Hotel"
1454,Broken Hill,AU,57.85,few clouds,-31.95,141.4333,Royal Exchange Hotel
1455,Antofagasta,CL,56.48,few clouds,-23.65,-70.4,Hotel NH Antofagasta
1468,Hermanus,ZA,51.8,moderate rain,-34.4187,19.2345,Harbour House Hotel
1472,Hervey Bay,AU,65.01,overcast clouds,-25.2986,152.8535,Oaks Hervey Bay Resort and Spa
1473,Busselton,AU,53.82,clear sky,-33.65,115.3333,Esplanade Hotel
1474,Busselton,AU,53.82,clear sky,-33.65,115.3333,Esplanade Hotel
1480,Port Lincoln,AU,56.86,scattered clouds,-34.7333,135.8667,Port Lincoln Hotel
1483,Bredasdorp,ZA,53.1,light rain,-34.5322,20.0403,Victoria Hotel - Bredasdorp
1488,Hermanus,ZA,51.8,moderate rain,-34.4187,19.2345,Harbour House Hotel
1489,Skjervøy,NO,51.8,overcast clouds,70.0311,20.9714,Hotel Maritim Skjervøy AS
1493,Port Lincoln,AU,56.86,scattered clouds,-34.7333,135.8667,Port Lincoln Hotel
1502,Port Lincoln,AU,56.86,scattered clouds,-34.7333,135.8667,Port Lincoln Hotel
1503,Port Alfred,ZA,61.95,overcast clouds,-33.5906,26.891,Royal St Andrews Hotel
1507,Arraial do Cabo,BR,67.86,clear sky,-22.9661,-42.0278,Orlanova Hotel
1509,Margate,GB,67.69,scattered clouds,51.3813,1.3862,Royal Albion Hotel
1512,Port Elizabeth,ZA,57.49,clear sky,-33.918,25.5701,Kingsworth Inn
1513,Saldanha,ZA,55.45,light rain,-33.0117,17.9442,Saldanha Bay Hotel
1514,Puerto Ayora,EC,68.56,light rain,-0.7393,-90.3518,Finch Bay Galapagos Hotel
1516,Urdoma,RU,57.56,overcast clouds,61.7533,48.5442,Severnyye Zori
1520,San Julián,MX,67.44,overcast clouds,21.0167,-102.1667,Hotel Casa Grande
1523,Cape Town,ZA,54.27,moderate rain,-33.9258,18.4232,The Bay Hotel
1539,Carnarvon,AU,63.54,clear sky,-24.8667,113.6333,Carnarvon Hotel
1542,Brae,GB,52.65,overcast clouds,60.3964,-1.353,Busta House Hotel
1547,Pisco,PE,60.85,few clouds,-13.7,-76.2167,PiscoMar Peru
1549,Khovd,MN,68.54,clear sky,48.0056,91.6419,Steppe hotel
1551,Kaabong,UG,63.32,light rain,3.4836,34.1492,Range Lands Hotel
1553,Mahébourg,MU,69.26,scattered clouds,-20.4081,57.7,Anantara Iko Mauritius Resort & Villas
1554,Mar del Plata,AR,52.88,clear sky,-38.0023,-57.5575,HOTEL TRONADOR
1555,Raudeberg,NO,56.07,light rain,61.9875,5.1352,Ulvesund FYR
1556,Saint Paul Harbor,US,58.51,overcast clouds,57.79,-152.4072,Best Western Kodiak Inn
1560,Lewisporte,CA,58.71,overcast clouds,49.2499,-55.0482,Brittany Inns Hotel
1565,Mar del Plata,AR,52.88,clear sky,-38.0023,-57.5575,HOTEL TRONADOR
1566,Cape Town,ZA,54.1,moderate rain,-33.9258,18.4232,The Bay Hotel
1568,Port Alfred,ZA,61.95,overcast clouds,-33.5906,26.891,Royal St Andrews Hotel
1569,Cape Town,ZA,54.1,moderate rain,-33.9258,18.4232,The Bay Hotel
1571,Mar del Plata,AR,52.88,clear sky,-38.0023,-57.5575,HOTEL TRONADOR
1576,Bambous Virieux,MU,69.22,light rain,-20.3428,57.7575,La Hacienda Hotel
1579,Puerto Ayora,EC,68.56,light rain,-0.7393,-90.3518,Finch Bay Galapagos Hotel
1584,Anadyr,RU,59.5,scattered clouds,64.75,177.4833,Chukotka hotel
1591,Puerto Ayora,EC,68.56,light rain,-0.7393,-90.3518,Finch Bay Galapagos Hotel
1596,Puerto Ayora,EC,68.56,light rain,-0.7393,-90.3518,Finch Bay Galapagos Hotel
1598,Kristinestad,FI,60.69,overcast clouds,62.2743,21.376,Hotel Kristina
1603,Mossamedes,AO,60.19,scattered clouds,-15.1961,12.1522,Hotel Chik Chik Namibe
1613,Busselton,AU,53.82,clear sky,-33.65,115.3333,Esplanade Hotel
1620,Cape Town,ZA,54.1,moderate rain,-33.9258,18.4232,The Bay Hotel
1621,Saint-Pierre,RE,67.91,clear sky,-21.3393,55.4781,Le Nathania
1635,Bredasdorp,ZA,53.1,light rain,-34.5322,20.0403,Victoria Hotel - Bredasdorp
1638,Port Alfred,ZA,61.95,overcast clouds,-33.5906,26.891,Royal St Andrews Hotel
1646,Pinega,RU,57.43,overcast clouds,64.7001,43.3936,"Gostinitsa ""Aeroport"""
1652,Villaviciosa,ES,69.4,few clouds,43.4813,-5.4357,Hotel Arcea Villaviciosa
1665,Mar del Plata,AR,52.88,clear sky,-38.0023,-57.5575,HOTEL TRONADOR
1668,Vardø,NO,53.58,overcast clouds,70.3705,31.1107,Vardø Hotel AS
1669,Pisco,PE,60.85,few clouds,-13.7,-76.2167,PiscoMar Peru
1670,Arrondissement de Mende,FR,57.88,clear sky,44.6667,3.5,Le Plateau du Roy
1673,Bambous Virieux,MU,69.22,light rain,-20.3428,57.7575,La Hacienda Hotel
1675,Prince Rupert,CA,64.49,clear sky,54.3161,-130.3201,Crest Hotel
1676,Los Llanos de Aridane,ES,69.55,clear sky,28.6585,-17.9182,Hotel Hacienda de Abajo
1680,Bredasdorp,ZA,53.1,light rain,-34.5322,20.0403,Victoria Hotel - Bredasdorp
1681,Bambous Virieux,MU,69.22,light rain,-20.3428,57.7575,La Hacienda Hotel
1684,Mar del Plata,AR,52.88,clear sky,-38.0023,-57.5575,HOTEL TRONADOR
1692,Rybnaya Sloboda,RU,57.34,overcast clouds,55.4613,50.1409,Гостиница Аяз
1693,Kruisfontein,ZA,53.89,overcast clouds,-34.0033,24.7314,40b Overnight Accommodation
1694,La Tuque,CA,55.31,scattered clouds,47.4334,-72.7824,Hôtel Marineau La Tuque
1701,Moyale,KE,65.3,overcast clouds,3.5167,39.0584,Holale Resort
1706,Busselton,AU,53.82,clear sky,-33.65,115.3333,Esplanade Hotel
1716,Auxerre,FR,62.64,few clouds,47.8,3.5667,Inter Hotel Normandie
1721,Bredasdorp,ZA,53.1,light rain,-34.5322,20.0403,Victoria Hotel - Bredasdorp
1725,Bredasdorp,ZA,53.1,light rain,-34.5322,20.0403,Victoria Hotel - Bredasdorp
1728,Oktyabr'skiy,RU,53.47,clear sky,54.4815,53.471,Hotel Devon
1736,Palora,EC,64.42,light rain,-1.7,-77.9333,Finca La Esperanza
1745,Rawson,AR,50.29,few clouds,-43.3002,-65.1023,Complejo Bahia Ballenas
1746,Las Palmas,ES,68.79,clear sky,28.4204,-14.0131,Los Molinos
1751,Stryn,NO,61.14,overcast clouds,61.9045,6.7226,Stryn Hotel
1752,Ballina,AU,66.02,overcast clouds,-28.8667,153.5667,Ramada Hotel & Suites by Wyndham Ballina Byron
1755,Nikolskoye,RU,64.29,overcast clouds,59.7035,30.7861,Tourist House - Sablino
1765,Mount Gambier,AU,51.71,light rain,-37.8333,140.7667,Blue Lake Motel
1767,Kruisfontein,ZA,53.89,overcast clouds,-34.0033,24.7314,40b Overnight Accommodation
1768,Mahébourg,MU,69.26,scattered clouds,-20.4081,57.7,Holiday Inn Mauritius Mon Tresor
1774,Narrabri,AU,55.53,light rain,-30.3167,149.7833,Crossroads Hotel
1780,Yeppoon,AU,67.78,overcast clouds,-23.1333,150.7333,Coral Inn Boutique Hotel
1783,Gold Coast,AU,67.03,overcast clouds,-28.0,153.4333,Woodroffe Hotel
1784,Puerto Ayora,EC,67.55,light rain,-0.7393,-90.3518,Finch Bay Galapagos Hotel
1786,Erenhot,CN,65.68,overcast clouds,43.6475,111.9767,Moli International Hotel
1788,Dali,CN,68.13,overcast clouds,25.7,100.1833,LUX* Tea Horse Road Dali
1790,Saldanha,ZA,55.45,light rain,-33.0117,17.9442,Saldanha Bay Hotel
1808,Bambous Virieux,MU,69.22,light rain,-20.3428,57.7575,La Hacienda Hotel
1814,Prince Rupert,CA,64.49,clear sky,54.3161,-130.3201,Crest Hotel
1825,Rawson,AR,50.29,few clouds,-43.3002,-65.1023,Complejo Bahia Ballenas
1830,Vardø,NO,53.58,overcast clouds,70.3705,31.1107,Vardø Hotel AS
1831,Vila,PT,56.7,clear sky,42.0304,-8.1588,Hotel Castrum Villae
1833,Nome,US,51.87,overcast clouds,64.5011,-165.4064,Aurora Inn & Suites
1834,Neumünster,DE,64.2,clear sky,54.0667,9.9833,Best Western Hotel Prisma
1836,Lianhe,CN,69.91,few clouds,47.1333,129.2667,Nancha Hotel
1838,Cape Town,ZA,54.1,moderate rain,-33.9258,18.4232,The Bay Hotel
1843,Bredasdorp,ZA,53.1,light rain,-34.5322,20.0403,Victoria Hotel - Bredasdorp
1844,Bexhill,AU,65.64,light rain,-28.7667,153.35,Arcadia Motel
1845,Sept-Îles,CA,64.92,broken clouds,50.2001,-66.3821,Hôtel Sept-Îles
1852,Karlskrona,SE,54.05,clear sky,56.1616,15.5866,Scandic Karlskrona
1856,Yellowknife,CA,64.92,scattered clouds,62.456,-114.3525,The Explorer Hotel
1862,Neepawa,CA,64.8,light rain,50.2289,-99.4664,"Bay Hill Inns & Suites, Neepawa"
1875,Cape Town,ZA,54.1,moderate rain,-33.9258,18.4232,The Bay Hotel
1883,Hermanus,ZA,51.8,moderate rain,-34.4187,19.2345,Harbour House Hotel
1884,Geraldton,AU,57.61,clear sky,-28.7667,114.6,Ocean Centre Hotel - Stay Beachside in Geraldton!
1887,Hermanus,ZA,51.8,moderate rain,-34.4187,19.2345,Harbour House Hotel
1895,Cape Town,ZA,54.1,moderate rain,-33.9258,18.4232,The Bay Hotel
1896,Souillac,MU,64.78,light rain,-20.5167,57.5167,Shanti Maurice Resort & Spa
1901,Kosh-Agach,RU,53.6,broken clouds,50.0,88.6667,Ostrovok
1904,Busselton,AU,53.82,clear sky,-33.65,115.3333,Esplanade Hotel
1909,Busselton,AU,53.82,clear sky,-33.65,115.3333,Esplanade Hotel
1924,Busselton,AU,53.82,clear sky,-33.65,115.3333,Esplanade Hotel
1930,Mahébourg,MU,68.25,scattered clouds,-20.4081,57.7,Anantara Iko Mauritius Resort & Villas
1945,Yellowknife,CA,64.92,scattered clouds,62.456,-114.3525,The Explorer Hotel
1947,Solnechnyy,RU,56.8,overcast clouds,50.7214,136.6319,Hotel complex Pastoral
1957,Yellowknife,CA,64.92,scattered clouds,62.456,-114.3525,The Explorer Hotel
1958,Komatipoort,ZA,64.65,clear sky,-25.4332,31.9548,SleepOver Komatipoort
1962,Bredasdorp,ZA,53.1,light rain,-34.5322,20.0403,Victoria Hotel - Bredasdorp
1966,Timrå,SE,61.68,light rain,62.487,17.3257,Vivstavarvstjärns Camping
1969,Chui,UY,51.3,few clouds,-33.6971,-53.4616,Hotel Internacional
1972,Hermanus,ZA,51.8,moderate rain,-34.4187,19.2345,Harbour House Hotel
1978,Grong,NO,51.13,overcast clouds,64.4654,12.3149,Namsentunet
1980,Yellowknife,CA,64.92,scattered clouds,62.456,-114.3525,The Explorer Hotel
1984,Bredasdorp,ZA,53.1,light rain,-34.5322,20.0403,Victoria Hotel - Bredasdorp
1986,Blackwater,AU,69.24,overcast clouds,-23.5833,148.8833,The Capricorn Hotel Motor Inn
1987,Lyubytino,RU,56.91,overcast clouds,58.8122,33.3922,Lyubytino-Khutor
1991,East London,ZA,63.43,scattered clouds,-33.0153,27.9116,Blue Lagoon Hotel
1996,Carnarvon,AU,63.54,clear sky,-24.8667,113.6333,Good Paddock Restaurant By Gascoyne Hotel
1998,Hermanus,ZA,51.8,moderate rain,-34.4187,19.2345,Harbour House Hotel
1999,Ahipara,NZ,55.81,clear sky,-35.1667,173.1667,Ahipara Bay Motel
